STARLINK-2135
1 47408U 21005BM  26092.82681372  .00086450  00000+0  56862-2 0  9998
2 47408  53.0557 283.2596 0000223 340.9416  19.1565 15.06825949287103
